NORAD_CAT_ID,OBJECT_NAME,OBJECT_TYPE,EPOCH,MEAN_MOTION,ECCENTRICITY,INCLINATION,RA_OF_ASC_NODE,ARG_OF_PERICENTER,MEAN_ANOMALY,BSTAR,MEAN_MOTION_DOT,MEAN_MOTION_DDOT,TLE_LINE0,TLE_LINE1,TLE_LINE2,SEMIMAJOR_AXIS,PERIOD,APOGEE,PERIGEE,DECAYED
54067.0,STARLINK-5174,PAYLOAD,2023-03-20 12:30:58,15.08848452,0.0001134,53.2171,175.4035,76.5884,283.5234,8.1319e-05,1.007e-05,0.0,0 STARLINK-5174,1 54067U 22136S   23079.52150664  .00001007  00000-0  81319-4 0  9990,2 54067  53.2171 175.4035 0001134  76.5884 283.5234 15.08848452 23024,6917.855,95.437,540.504,538.935,0.0
54067.0,STARLINK-5174,PAYLOAD,2023-03-20 15:41:43,15.08855297,0.0001057,53.217,174.809,78.265,281.846,0.00016382,2.321e-05,0.0,0 STARLINK-5174,1 54067U 22136S   23079.65397809  .00002321  00000-0  16382-3 0  9995,2 54067  53.2170 174.8090 0001057  78.2650 281.8460 15.08855297 23040,6917.834,95.437,540.43,538.967,0.0
54067.0,STARLINK-5174,PAYLOAD,2023-03-21 12:21:44,15.08854781,8.68e-05,53.2166,170.9441,50.2467,309.8602,-0.00010882,-2.02e-05,0.0,0 STARLINK-5174,1 54067U 22136S   23080.51510018 -.00002020  00000-0 -10882-3 0  9998,2 54067  53.2166 170.9441 0000868  50.2467 309.8602 15.08854781 23177,6917.835,95.437,540.301,539.1,0.0
54067.0,STARLINK-5174,PAYLOAD,2023-03-22 12:12:31,15.08847193,0.0001204,53.2171,166.4821,99.6648,260.448,-0.00011005,-2.039e-05,0.0,0 STARLINK-5174,1 54067U 22136S   23081.50870004 -.00002039  00000-0 -11005-3 0  9990,2 54067  53.2171 166.4821 0001204  99.6648 260.4480 15.08847193 23803,6917.858,95.437,540.556,538.89,0.0
54067.0,STARLINK-5174,PAYLOAD,2023-03-23 05:41:46,15.08833738,0.0001467,53.2169,163.2112,95.5727,264.5432,-4.8985e-05,-1.067e-05,0.0,0 STARLINK-5174,1 54067U 22136S   23082.23734613 -.00001067  00000-0 -48985-4 0  9994,2 54067  53.2169 163.2112 0001467  95.5727 264.5432 15.08833738 23916,6917.9,95.438,540.779,538.75,0.0
54067.0,STARLINK-5174,PAYLOAD,2023-03-23 12:03:18,15.08838472,0.000142,53.2162,162.0243,84.3404,275.775,4.0975e-06,-2.23e-06,0.0,0 STARLINK-5174,1 54067U 22136S   23082.50230247 -.00000223  00000-0  40975-5 0  9992,2 54067  53.2162 162.0243 0001420  84.3404 275.7750 15.08838472 23476,6917.885,95.438,540.732,538.768,0.0
54067.0,STARLINK-5174,PAYLOAD,2023-03-24 03:57:09,15.08846277,0.0001427,53.2175,159.0473,105.1278,254.9873,0.00017321,2.47e-05,0.0,0 STARLINK-5174,1 54067U 22136S   23083.16469204  .00002470  00000-0  17321-3 0  9994,2 54067  53.2175 159.0473 0001427 105.1278 254.9873 15.08846277 24051,6917.861,95.437,540.713,538.739,0.0
54067.0,STARLINK-5174,PAYLOAD,2023-03-24 10:18:39,15.08878434,0.0001989,53.2177,157.8556,127.9601,232.1571,0.00038424,5.839e-05,0.0,0 STARLINK-5174,1 54067U 22136S   23083.42962297  .00005839  00000-0  38424-3 0  9992,2 54067  53.2177 157.8556 0001989 127.9601 232.1571 15.08878434 24093,6917.763,95.435,541.004,538.252,0.0
54067.0,STARLINK-5174,PAYLOAD,2023-03-24 16:40:10,15.08893816,0.0001913,53.2175,156.6622,141.1807,218.9323,0.00036385,5.516e-05,0.0,0 STARLINK-5174,1 54067U 22136S   23083.69456413  .00005516  00000-0  36385-3 0  9995,2 54067  53.2175 156.6622 0001913 141.1807 218.9323 15.08893816 24138,6917.716,95.434,540.904,538.258,0.0
54067.0,STARLINK-5174,PAYLOAD,2023-03-24 21:26:24,15.08835371,0.0001317,53.2184,155.7787,80.4442,279.6699,-0.0001888,-3.291e-05,0.0,0 STARLINK-5174,1 54067U 22136S   23083.89333538 -.00003291  00000-0 -18880-3 0  9999,2 54067  53.2184 155.7787 0001317  80.4442 279.6699 15.08835371 23689,6917.895,95.438,540.671,538.848,0.0
54067.0,STARLINK-5174,PAYLOAD,2023-03-25 03:47:57,15.08823804,0.0001008,53.2178,154.5911,88.7211,271.3896,-4.0435e-05,-9.31e-06,0.0,0 STARLINK-5174,1 54067U 22136S   23084.15830005 -.00000931  00000-0 -40435-4 0  9990,2 54067  53.2178 154.5911 0001008  88.7211 271.3896 15.08823804 24205,6917.93,95.439,540.492,539.098,0.0
54067.0,STARLINK-5174,PAYLOAD,2023-03-25 11:44:52,15.08834714,0.0001122,53.2185,153.1026,98.7978,261.3141,-5.6352e-05,-1.184e-05,0.0,0 STARLINK-5174,1 54067U 22136S   23084.48949409 -.00001184  00000-0 -56352-4 0  9991,2 54067  53.2185 153.1026 0001122  98.7978 261.3141 15.08834714 24252,6917.897,95.438,540.538,538.985,0.0
54067.0,STARLINK-5174,PAYLOAD,2023-03-25 14:55:37,15.08844754,9.27e-05,53.2176,152.5039,96.2294,263.8804,1.8781e-05,1.1e-07,0.0,0 STARLINK-5174,1 54067U 22136S   23084.62196523  .00000011  00000-0  18781-4 0  9998,2 54067  53.2176 152.5039 0000927  96.2294 263.8804 15.08844754 24275,6917.866,95.437,540.372,539.09,0.0
54067.0,STARLINK-5174,PAYLOAD,2023-03-26 11:35:41,15.08825303,0.000113,53.2173,148.6398,89.307,270.8051,-0.00042302,-7.011e-05,0.0,0 STARLINK-5174,1 54067U 22136S   23085.48311946 -.00007011  00000-0 -42302-3 0  9995,2 54067  53.2173 148.6398 0001130  89.3070 270.8051 15.08825303 24404,6917.925,95.438,540.572,539.009,0.0
54067.0,STARLINK-5174,PAYLOAD,2023-03-26 16:21:50,15.08837163,9.26e-05,53.2175,147.7474,90.8851,269.2247,-0.00047612,-7.856e-05,0.0,0 STARLINK-5174,1 54067U 22136S   23085.68183345 -.00007856  00000-0 -47612-3 0  9993,2 54067  53.2175 147.7474 0000926  90.8851 269.2247 15.08837163 24436,6917.889,95.438,540.395,539.113,0.0
54067.0,STARLINK-5174,PAYLOAD,2023-03-26 21:07:59,15.08842527,9.75e-05,53.2167,146.8577,74.3675,285.7425,-0.0004371,-7.238e-05,0.0,0 STARLINK-5174,1 54067U 22136S   23085.88054981 -.00007238  00000-0 -43710-3 0  9997,2 54067  53.2167 146.8577 0000975  74.3675 285.7425 15.08842527 23986,6917.873,95.437,540.412,539.063,0.0
54067.0,STARLINK-5174,PAYLOAD,2023-03-27 13:01:50,15.08835248,9.36e-05,53.217,143.8823,74.6993,285.4103,0.00018311,2.627e-05,0.0,0 STARLINK-5174,1 54067U 22136S   23086.54294683  .00002627  00000-0  18311-3 0  9990,2 54067  53.2170 143.8823 0000936  74.6993 285.4103 15.08835248 24088,6917.895,95.438,540.407,539.112,0.0
54067.0,STARLINK-5174,PAYLOAD,2023-03-27 16:12:36,15.08840031,0.0001321,53.2173,143.2876,127.0628,233.0485,0.00021887,3.197e-05,0.0,0 STARLINK-5174,1 54067U 22136S   23086.67542327  .00003197  00000-0  21887-3 0  9990,2 54067  53.2173 143.2876 0001321 127.0628 233.0485 15.08840031 24583,6917.88,95.438,540.659,538.831,0.0
54067.0,STARLINK-5174,PAYLOAD,2023-03-28 12:52:38,15.08834499,0.0001442,53.2181,139.4184,85.8612,274.2545,0.00037391,5.667e-05,0.0,0 STARLINK-5174,1 54067U 22136S   23087.53655389  .00005667  00000-0  37391-3 0  9990,2 54067  53.2181 139.4184 0001442  85.8612 274.2545 15.08834499 24719,6917.897,95.438,540.76,538.765,0.0
54067.0,STARLINK-5174,PAYLOAD,2023-03-28 20:49:33,15.08835539,0.0001388,53.2188,137.9288,90.2863,269.8288,0.00040857,6.22e-05,0.0,0 STARLINK-5174,1 54067U 22136S   23087.86775413  .00006220  00000-0  40857-3 0  9994,2 54067  53.2188 137.9288 0001388  90.2863 269.8288 15.08835539 24283,6917.894,95.438,540.719,538.799,0.0
54067.0,STARLINK-5174,PAYLOAD,2023-03-29 09:32:39,15.08847628,0.0001312,53.2175,135.5522,93.7975,266.3167,6.842e-05,8.01e-06,0.0,0 STARLINK-5174,1 54067U 22136S   23088.39767450  .00000801  00000-0  68420-4 0  9991,2 54067  53.2175 135.5522 0001312  93.7975 266.3167 15.08847628 24362,6917.857,95.437,540.63,538.814,0.0
54067.0,STARLINK-5174,PAYLOAD,2023-03-29 14:18:47,15.08856819,0.0001297,53.2187,134.6585,117.1555,242.957,0.00012353,1.679e-05,0.0,0 STARLINK-5174,1 54067U 22136S   23088.59638471  .00001679  00000-0  12353-3 0  9990,2 54067  53.2187 134.6585 0001297 117.1555 242.9570 15.08856819 24877,6917.829,95.436,540.591,538.797,0.0
54067.0,STARLINK-5174,PAYLOAD,2023-03-30 03:01:58,15.08792991,0.0001769,53.2186,132.2798,112.3982,247.7198,-0.00036651,-6.109e-05,0.0,0 STARLINK-5174,1 54067U 22136S   23089.12636642 -.00006109  00000-0 -36651-3 0  9990,2 54067  53.2186 132.2798 0001769 112.3982 247.7198 15.08792991 24959,6918.024,95.441,541.113,538.665,0.0
54067.0,STARLINK-5174,PAYLOAD,2023-03-30 09:23:27,15.08839118,0.0001901,53.2172,131.0981,95.7392,264.3817,-6.3136e-05,-1.293e-05,0.0,0 STARLINK-5174,1 54067U 22136S   23089.39129178 -.00001293  00000-0 -63136-4 0  9998,2 54067  53.2172 131.0981 0001901  95.7392 264.3817 15.08839118 24992,6917.883,95.438,541.063,538.433,0.0
54067.0,STARLINK-5174,PAYLOAD,2023-03-31 04:28:04,15.08850575,0.0001764,53.2159,127.5247,114.127,245.9907,0.00040562,6.175e-05,0.0,0 STARLINK-5174,1 54067U 22136S   23090.18616713  .00006175  00000-0  40562-3 0  9992,2 54067  53.2159 127.5247 0001764 114.1270 245.9907 15.08850575 25110,6917.848,95.437,540.933,538.493,0.0
54067.0,STARLINK-5174,PAYLOAD,2023-03-31 12:25:00,15.08879477,0.0001777,53.2171,126.0427,97.4219,262.6975,0.0011674,0.0001836,0.0,0 STARLINK-5174,1 54067U 22136S   23090.51736328  .00018360  00000-0  11674-2 0  9994,2 54067  53.2171 126.0427 0001777  97.4219 262.6975 15.08879477 25166,6917.76,95.435,540.854,538.395,0.0
54067.0,STARLINK-5174,PAYLOAD,2023-03-31 18:46:33,15.08858439,0.0002299,53.2167,124.8511,83.0884,277.0369,0.00073625,0.00011455,0.0,0 STARLINK-5174,1 54067U 22136S   23090.78232811  .00011455  00000-0  73625-3 0  9994,2 54067  53.2167 124.8511 0002299  83.0884 277.0369 15.08858439 25207,6917.824,95.436,541.279,538.099,0.0
54067.0,STARLINK-5174,PAYLOAD,2023-04-01 10:40:24,15.08845077,0.0002023,53.2182,121.8804,104.8399,255.2818,-0.00011466,-2.113e-05,0.0,0 STARLINK-5174,1 54067U 22136S   23091.44472430 -.00002113  00000-0 -11466-3 0  9999,2 54067  53.2182 121.8804 0002023 104.8399 255.2818 15.08845077 25306,6917.865,95.437,541.129,538.33,0.0
54067.0,STARLINK-5174,PAYLOAD,2023-04-01 18:37:19,15.08840895,0.0001949,53.2175,120.3935,99.4893,260.632,-0.00020007,-3.471e-05,0.0,0 STARLINK-5174,1 54067U 22136S   23091.77592450 -.00003471  00000-0 -20007-3 0  9999,2 54067  53.2175 120.3935 0001949  99.4893 260.6320 15.08840895 24873,6917.878,95.437,541.091,538.394,0.0
54067.0,STARLINK-5174,PAYLOAD,2023-04-02 12:06:33,15.0885272,0.0001761,53.2161,117.1204,93.1495,266.9699,0.00012045,1.63e-05,0.0,0 STARLINK-5174,1 54067U 22136S   23092.50455761  .00001630  00000-0  12045-3 0  9990,2 54067  53.2161 117.1204 0001761  93.1495 266.9699 15.08852720 25466,6917.842,95.437,540.925,538.488,0.0
